CTC2_L_00343001-01
1 10000U 25933B   26075.70045139  .00000000  00000+0  00000-0 0  9991
2 10000  60.0000   0.0000 0000000   0.0000   0.0000 13.42494874    16
CTC2_L_00343001-02
1 10001U 24817RV  26075.70045139  .00000000  00000+0  00000-0 0  9992
2 10001  60.0000   0.0000 0000000   0.0000  90.0000 13.42494874    16
CTC2_L_00343001-03
1 10002U 24785OR  26075.70045139  .00000000  00000+0  00000-0 0  9997
2 10002  60.0000   0.0000 0000000   0.0000 180.0000 13.42494874    17
CTC2_L_00343001-04
1 10003U 22277HO  26075.70045139  .00000000  00000+0  00000-0 0  9992
2 10003  60.0000   0.0000 0000000   0.0000 270.0000 13.42494874    18
CTC2_L_00343002-01
1 10004U 24893FB  26075.70045139  .00000000  00000+0  00000-0 0  9999
2 10004  60.0000  12.0000 0000000   0.0000  12.0000 13.42494874    16
CTC2_L_00343002-02
1 10005U 22900IY  26075.70045139  .00000000  00000+0  00000-0 0  9997
2 10005  60.0000  12.0000 0000000   0.0000 102.0000 13.42494874    17
CTC2_L_00343002-03
1 10006U 25079CP  26075.70045139  .00000000  00000+0  00000-0 0  9998
2 10006  60.0000  12.0000 0000000   0.0000 192.0000 13.42494874    17
CTC2_L_00343002-04
1 10007U 26940LU  26075.70045139  .00000000  00000+0  00000-0 0  9997
2 10007  60.0000  12.0000 0000000   0.0000 282.0000 13.42494874    18
CTC2_L_00343003-01
1 10008U 25364IA  26075.70045139  .00000000  00000+0  00000-0 0  9997
2 10008  60.0000  24.0000 0000000   0.0000  24.0000 13.42494874    16
CTC2_L_00343003-02
1 10009U 23835SV  26075.70045139  .00000000  00000+0  00000-0 0  9999
2 10009  60.0000  24.0000 0000000   0.0000 114.0000 13.42494874    17
CTC2_L_00343003-03
1 10010U 26036TN  26075.70045139  .00000000  00000+0  00000-0 0  9997
2 10010  60.0000  24.0000 0000000   0.0000 204.0000 13.42494874    19
CTC2_L_00343003-04
1 10011U 24184GH  26075.70045139  .00000000  00000+0  00000-0 0  9990
2 10011  60.0000  24.0000 0000000   0.0000 294.0000 13.42494874    19
CTC2_L_00343004-01
1 10012U 24170SS  26075.70045139  .00000000  00000+0  00000-0 0  9996
2 10012  60.0000  36.0000 0000000   0.0000  36.0000 13.42494874    17
CTC2_L_00343004-02
1 10013U 24121PQ  26075.70045139  .00000000  00000+0  00000-0 0  9993
2 10013  60.0000  36.0000 0000000   0.0000 126.0000 13.42494874    18
CTC2_L_00343004-03
1 10014U 25745YD  26075.70045139  .00000000  00000+0  00000-0 0  9997
2 10014  60.0000  36.0000 0000000   0.0000 216.0000 13.42494874    19
CTC2_L_00343004-04
1 10015U 26023GE  26075.70045139  .00000000  00000+0  00000-0 0  9998
2 10015  60.0000  36.0000 0000000   0.0000 306.0000 13.42494874    10
CTC2_L_00343005-01
1 10016U 23444BG  26075.70045139  .00000000  00000+0  00000-0 0  9993
2 10016  60.0000  48.0000 0000000   0.0000  48.0000 13.42494874    17
CTC2_L_00343005-02
1 10017U 22288JJ  26075.70045139  .00000000  00000+0  00000-0 0  9999
2 10017  60.0000  48.0000 0000000   0.0000 138.0000 13.42494874    18
CTC2_L_00343005-03
1 10018U 23823HY  26075.70045139  .00000000  00000+0  00000-0 0  9996
2 10018  60.0000  48.0000 0000000   0.0000 228.0000 13.42494874    19
CTC2_L_00343005-04
1 10019U 24957VH  26075.70045139  .00000000  00000+0  00000-0 0  9996
2 10019  60.0000  48.0000 0000000   0.0000 318.0000 13.42494874    10
CTC2_L_00343006-01
1 10020U 22572RC  26075.70045139  .00000000  00000+0  00000-0 0  9999
2 10020  60.0000  60.0000 0000000   0.0000  60.0000 13.42494874    10
CTC2_L_00343006-02
1 10021U 22363NM  26075.70045139  .00000000  00000+0  00000-0 0  9998
2 10021  60.0000  60.0000 0000000   0.0000 150.0000 13.42494874    11
CTC2_L_00343006-03
1 10022U 24008CQ  26075.70045139  .00000000  00000+0  00000-0 0  9997
2 10022  60.0000  60.0000 0000000   0.0000 240.0000 13.42494874    12
CTC2_L_00343006-04
1 10023U 25001YV  26075.70045139  .00000000  00000+0  00000-0 0  9992
2 10023  60.0000  60.0000 0000000   0.0000 330.0000 13.42494874    13
CTC2_L_00343007-01
1 10024U 25534MT  26075.70045139  .00000000  00000+0  00000-0 0  9994
2 10024  60.0000  72.0000 0000000   0.0000  72.0000 13.42494874    10
CTC2_L_00343007-02
1 10025U 22815VM  26075.70045139  .00000000  00000+0  00000-0 0  9994
2 10025  60.0000  72.0000 0000000   0.0000 162.0000 13.42494874    11
CTC2_L_00343007-03
1 10026U 23465FC  26075.70045139  .00000000  00000+0  00000-0 0  9997
2 10026  60.0000  72.0000 0000000   0.0000 252.0000 13.42494874    12
CTC2_L_00343007-04
1 10027U 24613VS  26075.70045139  .00000000  00000+0  00000-0 0  9994
2 10027  60.0000  72.0000 0000000   0.0000 342.0000 13.42494874    13
CTC2_L_00343008-01
1 10028U 22893VA  26075.70045139  .00000000  00000+0  00000-0 0  9993
2 10028  60.0000  84.0000 0000000   0.0000  84.0000 13.42494874    10
CTC2_L_00343008-02
1 10029U 23279PY  26075.70045139  .00000000  00000+0  00000-0 0  9993
2 10029  60.0000  84.0000 0000000   0.0000 174.0000 13.42494874    11
CTC2_L_00343008-03
1 10030U 23204JG  26075.70045139  .00000000  00000+0  00000-0 0  9993
2 10030  60.0000  84.0000 0000000   0.0000 264.0000 13.42494874    13
CTC2_L_00343008-04
1 10031U 24343SG  26075.70045139  .00000000  00000+0  00000-0 0  9999
2 10031  60.0000  84.0000 0000000   0.0000 354.0000 13.42494874    14
CTC2_L_00343009-01
1 10032U 26268F   26075.70045139  .00000000  00000+0  00000-0 0  9998
2 10032  60.0000  96.0000 0000000   0.0000  96.0000 13.42494874    11
CTC2_L_00343009-02
1 10033U 25519RQ  26075.70045139  .00000000  00000+0  00000-0 0  9997
2 10033  60.0000  96.0000 0000000   0.0000 186.0000 13.42494874    12
CTC2_L_00343009-03
1 10034U 25688DR  26075.70045139  .00000000  00000+0  00000-0 0  9995
2 10034  60.0000  96.0000 0000000   0.0000 276.0000 13.42494874    13
CTC2_L_00343009-04
1 10035U 22962CP  26075.70045139  .00000000  00000+0  00000-0 0  9998
2 10035  60.0000  96.0000 0000000   0.0000   6.0000 13.42494874    15
CTC2_L_00343010-01
1 10036U 24521SC  26075.70045139  .00000000  00000+0  00000-0 0  9992
2 10036  60.0000 108.0000 0000000   0.0000 108.0000 13.42494874    13
CTC2_L_00343010-02
1 10037U 25786RJ  26075.70045139  .00000000  00000+0  00000-0 0  9997
2 10037  60.0000 108.0000 0000000   0.0000 198.0000 13.42494874    13
CTC2_L_00343010-03
1 10038U 23868VO  26075.70045139  .00000000  00000+0  00000-0 0  9997
2 10038  60.0000 108.0000 0000000   0.0000 288.0000 13.42494874    14
CTC2_L_00343010-04
1 10039U 26506T   26075.70045139  .00000000  00000+0  00000-0 0  9990
2 10039  60.0000 108.0000 0000000   0.0000  18.0000 13.42494874    16
CTC2_L_00343011-01
1 10040U 24994QD  26075.70045139  .00000000  00000+0  00000-0 0  9991
2 10040  60.0000 120.0000 0000000   0.0000 120.0000 13.42494874    16
CTC2_L_00343011-02
1 10041U 26773GT  26075.70045139  .00000000  00000+0  00000-0 0  9999
2 10041  60.0000 120.0000 0000000   0.0000 210.0000 13.42494874    17
CTC2_L_00343011-03
1 10042U 25905XW  26075.70045139  .00000000  00000+0  00000-0 0  9996
2 10042  60.0000 120.0000 0000000   0.0000 300.0000 13.42494874    18
CTC2_L_00343011-04
1 10043U 26538JX  26075.70045139  .00000000  00000+0  00000-0 0  9990
2 10043  60.0000 120.0000 0000000   0.0000  30.0000 13.42494874    19
CTC2_L_00343012-01
1 10044U 24795FM  26075.70045139  .00000000  00000+0  00000-0 0  9994
2 10044  60.0000 132.0000 0000000   0.0000 132.0000 13.42494874    16
CTC2_L_00343012-02
1 10045U 22370KZ  26075.70045139  .00000000  00000+0  00000-0 0  9992
2 10045  60.0000 132.0000 0000000   0.0000 222.0000 13.42494874    17
CTC2_L_00343012-03
1 10046U 24573PW  26075.70045139  .00000000  00000+0  00000-0 0  9990
2 10046  60.0000 132.0000 0000000   0.0000 312.0000 13.42494874    18
CTC2_L_00343012-04
1 10047U 24234UK  26075.70045139  .00000000  00000+0  00000-0 0  9995
2 10047  60.0000 132.0000 0000000   0.0000  42.0000 13.42494874    19
CTC2_L_00343013-01
1 10048U 25365NC  26075.70045139  .00000000  00000+0  00000-0 0  9992
2 10048  60.0000 144.0000 0000000   0.0000 144.0000 13.42494874    16
CTC2_L_00343013-02
1 10049U 23030SG  26075.70045139  .00000000  00000+0  00000-0 0  9990
2 10049  60.0000 144.0000 0000000   0.0000 234.0000 13.42494874    17
CTC2_L_00343013-03
1 10050U 24043FA  26075.70045139  .00000000  00000+0  00000-0 0  9997
2 10050  60.0000 144.0000 0000000   0.0000 324.0000 13.42494874    19
CTC2_L_00343013-04
1 10051U 22993LE  26075.70045139  .00000000  00000+0  00000-0 0  9990
2 10051  60.0000 144.0000 0000000   0.0000  54.0000 13.42494874    10
CTC2_L_00343014-01
1 10052U 26940MY  26075.70045139  .00000000  00000+0  00000-0 0  9997
2 10052  60.0000 156.0000 0000000   0.0000 156.0000 13.42494874    17
CTC2_L_00343014-02
1 10053U 25326DG  26075.70045139  .00000000  00000+0  00000-0 0  9995
2 10053  60.0000 156.0000 0000000   0.0000 246.0000 13.42494874    18
CTC2_L_00343014-03
1 10054U 24627ON  26075.70045139  .00000000  00000+0  00000-0 0  9999
2 10054  60.0000 156.0000 0000000   0.0000 336.0000 13.42494874    19
CTC2_L_00343014-04
1 10055U 23256CE  26075.70045139  .00000000  00000+0  00000-0 0  9997
2 10055  60.0000 156.0000 0000000   0.0000  66.0000 13.42494874    10
CTC2_L_00343015-01
1 10056U 24347CT  26075.70045139  .00000000  00000+0  00000-0 0  9990
2 10056  60.0000 168.0000 0000000   0.0000 168.0000 13.42494874    17
CTC2_L_00343015-02
1 10057U 25971NT  26075.70045139  .00000000  00000+0  00000-0 0  9995
2 10057  60.0000 168.0000 0000000   0.0000 258.0000 13.42494874    18
CTC2_L_00343015-03
1 10058U 23493EY  26075.70045139  .00000000  00000+0  00000-0 0  9993
2 10058  60.0000 168.0000 0000000   0.0000 348.0000 13.42494874    19
CTC2_L_00343015-04
1 10059U 22392IW  26075.70045139  .00000000  00000+0  00000-0 0  9991
2 10059  60.0000 168.0000 0000000   0.0000  78.0000 13.42494874    10
CTC2_L_00343016-01
1 10060U 24240BM  26075.70045139  .00000000  00000+0  00000-0 0  9997
2 10060  60.0000 180.0000 0000000   0.0000 180.0000 13.42494874    10
CTC2_L_00343016-02
1 10061U 23856DL  26075.70045139  .00000000  00000+0  00000-0 0  9990
2 10061  60.0000 180.0000 0000000   0.0000 270.0000 13.42494874    11
